MOLNIYA 2-9             
1 07276U 74026A   15112.77628406  .00009464  00000-0  10581-2 0  9991
2 07276  62.4871 325.1451 7169851 279.2039  12.6811  2.44220692185354
MOLNIYA 2-10            
1 07376U 74056A   15113.87530756 -.00001788  00000-0  00000+0 0  9991
2 07376  61.6103  73.9562 7471116 280.1187  10.6390  2.00555973297887
MOLNIYA 1-S             
1 07392U 74060A   15112.63283035 -.00000376  00000-0  00000+0 0  9994
2 07392  10.4577 316.3144 0012102 149.4711  79.4744  1.00256352 93317
MOLNIYA 1-29            
1 07780U 75036A   15113.40415199 -.00000443  00000-0 -22213-2 0  9992
2 07780  61.7505 252.0300 7355472 261.4011  17.1166  2.00658851293245
MOLNIYA 2-13            
1 08015U 75063A   15112.78571929 -.00001460  00000-0 -43604-3 0  9996
2 08015  61.8190 257.7976 7392006 256.7947  18.6918  2.00738778291569
MOLNIYA 2-14            
1 08195U 75081A   15113.38014529  .00000800  00000-0  14351-2 0  9991
2 08195  61.4869 226.6302 7360529 262.6638  16.6115  2.00575628290337
MOLNIYA 3-3             
1 08425U 75105A   15112.40403585 -.00000513  00000-0 -10367-2 0  9996
2 08425  61.4579 252.4376 7410726 253.5003  20.0446  2.00655074288965
MOLNIYA 1-32            
1 08601U 76006A   15110.80644797  .00000893  00000-0 -70569-3 0  9998
2 08601  62.7110 323.4439 7373101 260.8151  17.0675  2.00058603286700
MOLNIYA 2-17            
1 09829U 77010A   15109.69374227 -.00000708  00000-0 -34412-2 0  9992
2 09829  62.8806 353.8460 7357226 246.5257  24.3809  2.00415983279817
MOLNIYA 1-36            
1 09880U 77021A   15111.51982238 -.00001525  00000-0  57590-3 0  9992
2 09880  62.3102 318.9926 7422328 256.2112  18.5411  2.00531343177013
MOLNIYA 3-7             
1 09941U 77032A   15113.10703940  .00000829  00000-0  65370-2 0  9999
2 09941  62.4194 327.6998 7411783 249.2645  22.1381  2.00509964278333
MOLNIYA 3-8             
1 10455U 77105A   15113.24214240 -.00001219  00000-0  20958-3 0  9996
2 10455  62.9128  28.6124 7389380 259.6350  17.4905  2.00782357274661
MOLNIYA 1-40            
1 10925U 78055A   15112.93508695  .00000938  00000-0  25895-2 0  9998
2 10925  62.5969  61.8460 7367641 263.2207  16.3514  2.00652794270292
MOLNIYA 1-42            
1 11007U 78080A   15113.16555023  .00015113  25280-7  74829-3 0  9998
2 11007  62.3574  94.0335 7272475 256.0184  20.3014  2.32659061288936
MOLNIYA 3-10            
1 11057U 78095A   15112.11047603  .00000209  00000-0  16319-2 0  9998
2 11057  62.5102 174.6264 7049140 260.5648  20.3818  2.34208498292339
MOLNIYA 1-44            
1 11474U 79070A   15113.51533337  .00143129  15860-5  91634-3 0  9992
2 11474  62.0985 184.7053 2440802 236.0931 187.4588 10.69196524473795
MOLNIYA 3-13            
1 11896U 80063A   15111.16454218  .00000151  00000-0  00000+0 0  9998
2 11896  62.8150 156.1200 7124139 262.6345  18.7548  2.00599629254690
MOLNIYA 1-49            
1 12156U 81009A   15112.27595047 -.00000452  00000-0  00000+0 0  9993
2 12156  64.5544 161.9714 6617151 256.1377  72.0961  2.05707911167777
MOLNIYA 1-52            
1 13012U 81123A   15113.27261206 -.00000986  00000-0 -18640+0 0  9992
2 13012  64.4728 229.2171 6557644 264.9571  23.9609  2.00570941244248
MOLNIYA 1-53            
1 13070U 82015A   15112.12098451 -.00000445  00000-0 -17207-1 0  9990
2 13070  62.7141 244.9729 7167792 261.5467 188.8380  2.00612672242810
MOLNIYA 3-20            
1 13875U 83015A   15111.95590937 -.00001257  00000-0 -14393-1 0  9995
2 13875  64.1038 307.9937 6969764 268.7819 344.1827  2.00566432171325
MOLNIYA 1-56            
1 13890U 83019A   15113.39135809 -.00000032  00000-0  10000-3 0  9991
2 13890  63.9361 349.3204 7131494 266.7085  16.9691  1.99943541234397
MOLNIYA 1-62            
1 15214U 84089A   15112.32040956  .00000577  00000-0  29369-2 0  9991
2 15214  63.7899  27.1923 7288981 262.1858 274.3844  1.97948753192531
MOLNIYA 1-63            
1 15429U 84124A   15113.35581015  .00000046  00000-0  10000-3 0  9993
2 15429  63.5333  86.2686 6849503 275.7660  16.1143  2.00600003222418
MOLNIYA 3-24            
1 15738U 85040A   15111.99990192  .00000132  00000-0  17115-1 0  9990
2 15738  64.4254 140.1808 6339799 275.4440  18.3756  2.55629482237099
MOLNIYA 3-27            
1 16393U 85117A   15112.69574042 -.00000117  00000-0 -44853-1 0  9997
2 16393  64.4772   9.7296 6875765 282.3915  14.3913  2.12397481218707
MOLNIYA 1-69            
1 17078U 86089A   15113.37773212  .00000148  00000-0  66760-1 0  9996
2 17078  63.7395 111.1596 6833603 278.5781  77.1732  2.00653756208426
MOLNIYA 3-31            
1 17328U 87008A   15113.19076230 -.00000203  00000-0  53048-2 0  9991
2 17328  63.9407  59.1049 6989369 275.7477 237.2496  2.00668165203494
MOLNIYA 1-71            
1 18946U 88017A   15113.18937690 -.00000239  00000-0  72766-2 0  9991
2 18946  63.8365  73.7331 7026506 273.0471 211.5622  2.00604242198697
MOLNIYA 1-75            
1 19807U 89014A   15110.51289385  .00001198  00000-0  81773-2 0  9993
2 19807  63.5123 222.3504 6948503 282.7634  13.2503  2.00389798191654
MOLNIYA 1-80            
1 21118U 91012A   15112.10916258  .00000494  00000-0  27312-3 0  9993
2 21118  62.6437 291.2989 7354596 288.4473 334.7697  2.05241421177373
MOLNIYA 3-40            
1 21196U 91022A   15108.71726964  .00000986  00000-0 -17161-2 0  9992
2 21196  62.8771 274.8500 7308356 289.4972   9.3064  2.02988282176547
MOLNIYA 1-81            
1 21426U 91043A   15113.53188654 -.00000174  00000-0 -41295-2 0  9990
2 21426  63.2922 289.5976 7225660 283.8494  13.1723  2.00626297174758
MOLNIYA 3-41            
1 21706U 91065A   15113.29856264  .00001202  00000-0  18832-1 0  9998
2 21706  63.7285 112.6392 6936483 280.1340  45.7913  2.04342747173553
MOLNIYA 3-42            
1 22178U 92067A   15111.55689891  .00000100  00000-0  59427-3 0  9995
2 22178  63.0516 199.4557 6998918 288.9770 120.3752  2.20434676166900
MOLNIYA 1-86            
1 22671U 93035A   15113.83023096  .00005595  00000-0  15337-2 0  9995
2 22671  62.9195 321.9984 4975687 322.1898  11.5928  5.61631913205342
MOLNIYA 1-87            
1 22949U 93079A   15113.19462505 -.00001386  00000-0  87081-3 0  9993
2 22949  61.6326  92.3066 7446112 274.1861 258.8898  2.00370588156375
MOLNIYA 1-88            
1 23420U 94081A   15113.21370951  .00000258  00000-0  57178-3 0  9998
2 23420  62.7595 141.6026 6359045 295.5682  13.2321  3.34488730159564
MOLNIYA 3-47            
1 23642U 95042A   15113.84822174 -.00000220  00000-0  66818-3 0  9991
2 23642  61.9916  68.4108 7475040 274.6920 349.4508  2.00678580144407
MOLNIYA 1-90            
1 24960U 97054A   15109.85585303  .00001345  00000-0  15482-2 0  9994
2 24960  61.9917  99.2684 7445664 274.3008  12.2280  2.04851513129280
MOLNIYA 1-91            
1 25485U 98054A   15113.85659689 -.00002454  00000-0  00000+0 0  9992
2 25485  61.9378 239.7336 7361902 262.1983  16.7674  2.00604863121387
MOLNIYA 3-50            
1 25847U 99036A   15110.75195418 -.00000249  00000-0 -42831-3 0  9999
2 25847  62.8987  10.0307 7384953 259.1224  17.7067  2.00593636115653
MOLNIYA 3-51            
1 26867U 01030A   15113.73168353  .00003775  00000-0  99339-3 0  9998
2 26867  62.4813 233.1792 7092656 260.8774  26.7390  2.51807905102851
MOLNIYA 1-93            
1 28163U 04005A   15111.80574278  .00000399  00000-0  55266-3 0  9997
2 28163  63.9150  29.6800 7483604 243.8549  24.5600  2.00665061 81853
